[
  {
    "name": "ONEWEB-0236",
    "noradId": "48797",
    "line1": "1 48797U 21045AG  26169.54487390  .00000254  00000+0  64067-3 0  9997",
    "line2": "2 48797  87.9004 258.9362 0002204 102.4862 257.6515 13.15548408244438"
  },
  {
    "name": "ONEWEB-0248",
    "noradId": "48798",
    "line1": "1 48798U 21045AH  26169.48148390  .00000195  00000+0  48509-3 0  9992",
    "line2": "2 48798  87.9012 258.9321 0001829 114.8946 245.2375 13.15548095244580"
  },
  {
    "name": "ONEWEB-0225",
    "noradId": "48799",
    "line1": "1 48799U 21045AJ  26169.50367410 -.00000071  00000+0 -22259-3 0  9991",
    "line2": "2 48799  87.9007 258.9358 0001532 111.0443 249.0851 13.15549242244594"
  },
  {
    "name": "ONEWEB-0215",
    "noradId": "48800",
    "line1": "1 48800U 21045AK  26169.47355492  .00000250  00000+0  62875-3 0  9992",
    "line2": "2 48800  87.9013 258.9243 0001534 118.2954 241.8331 13.15547309244466"
  },
  {
    "name": "ONEWEB-0216",
    "noradId": "48801",
    "line1": "1 48801U 21045AL  26169.48307657  .00000201  00000+0  49963-3 0  9993",
    "line2": "2 48801  87.9012 258.9372 0001979  98.2388 261.8966 13.15549638244474"
  },
  {
    "name": "ONEWEB-0239",
    "noradId": "48802",
    "line1": "1 48802U 21045AM  26169.48782607  .00000021  00000+0  20763-4 0  9994",
    "line2": "2 48802  87.9002 258.9426 0001732 125.0886 235.0407 13.15549341244512"
  },
  {
    "name": "ONEWEB-0249",
    "noradId": "48967",
    "line1": "1 48967U 21060A   26169.42083512  .00000010  00000+0 -82345-5 0  9990",
    "line2": "2 48967  87.9096 228.5333 0002081 101.0103 259.1262 13.16595700239770"
  },
  {
    "name": "ONEWEB-0250",
    "noradId": "48968",
    "line1": "1 48968U 21060B   26169.59048855  .00000046  00000+0  74449-4 0  9993",
    "line2": "2 48968  87.9096 226.2512 0002850 112.4966 247.6472 13.25834044240406"
  },
  {
    "name": "ONEWEB-0252",
    "noradId": "48970",
    "line1": "1 48970U 21060D   26169.60370972  .00000064  00000+0  13309-3 0  9993",
    "line2": "2 48970  87.9096 228.4889 0001904  92.9417 267.1932 13.16593745239846"
  },
  {
    "name": "ONEWEB-0253",
    "noradId": "48971",
    "line1": "1 48971U 21060E   26169.59262715  .00000000  00000+0 -33345-4 0  9991",
    "line2": "2 48971  87.9096 228.4968 0002085 101.2543 258.8822 13.16593511239778"
  },
  {
    "name": "ONEWEB-0254",
    "noradId": "48972",
    "line1": "1 48972U 21060F   26169.60212645  .00000044  00000+0  80803-4 0  9999",
    "line2": "2 48972  87.9097 228.4923 0001930 106.7425 253.3918 13.16594594239776"
  },
  {
    "name": "ONEWEB-0255",
    "noradId": "48973",
    "line1": "1 48973U 21060G   26169.41213365  .00000046  00000+0  87485-4 0  9994",
    "line2": "2 48973  87.9100 228.5368 0001938 101.8876 258.2472 13.16594955239826"
  },
  {
    "name": "ONEWEB-0256",
    "noradId": "48974",
    "line1": "1 48974U 21060H   26169.59024625 -.00000104  00000+0 -30575-3 0  9997",
    "line2": "2 48974  87.9090 228.5057 0002086  94.6789 265.4580 13.16593883239815"
  },
  {
    "name": "ONEWEB-0257",
    "noradId": "48975",
    "line1": "1 48975U 21060J   26169.39471254  .00000192  00000+0  46936-3 0  9993",
    "line2": "2 48975  87.9099 228.5314 0001894  98.0387 262.0959 13.16595492239742"
  },
  {
    "name": "ONEWEB-0258",
    "noradId": "48976",
    "line1": "1 48976U 21060K   26169.39629880  .00000183  00000+0  44474-3 0  9999",
    "line2": "2 48976  87.9099 228.5430 0002078  98.9506 261.1861 13.16595362239758"
  },
  {
    "name": "ONEWEB-0259",
    "noradId": "48977",
    "line1": "1 48977U 21060L   26169.38996770  .00000138  00000+0  32787-3 0  9998",
    "line2": "2 48977  87.9097 228.5435 0002060 102.9691 257.1670 13.16595223239786"
  },
  {
    "name": "ONEWEB-0260",
    "noradId": "48978",
    "line1": "1 48978U 21060M   26169.60924547  .00000086  00000+0  19130-3 0  9996",
    "line2": "2 48978  87.9091 228.5016 0001930  86.4108 273.7244 13.16594288239792"
  },
  {
    "name": "ONEWEB-0261",
    "noradId": "48979",
    "line1": "1 48979U 21060N   26169.42715416 -.00000173  00000+0 -48674-3 0  9994",
    "line2": "2 48979  87.9094 228.5378 0001757 100.3557 259.7772 13.16593588239824"
  },
  {
    "name": "ONEWEB-0262",
    "noradId": "48980",
    "line1": "1 48980U 21060P   26169.40738204  .00000021  00000+0  21554-4 0  9993",
    "line2": "2 48980  87.9100 228.5275 0002138 106.0764 254.0603 13.16594784239782"
  },
  {
    "name": "ONEWEB-0263",
    "noradId": "48981",
    "line1": "1 48981U 21060Q   26169.59103969  .00000048  00000+0  91526-4 0  9993",
    "line2": "2 48981  87.9096 228.5029 0001786 104.3564 255.7765 13.16594567239776"
  },
  {
    "name": "ONEWEB-0264",
    "noradId": "48982",
    "line1": "1 48982U 21060R   26169.40025878  .00000025  00000+0  32588-4 0  9994",
    "line2": "2 48982  87.9099 228.5438 0001841  94.8353 265.2988 13.16595659239759"
  },
  {
    "name": "ONEWEB-0266",
    "noradId": "48984",
    "line1": "1 48984U 21060T   26169.42163343 -.00000048  00000+0 -15998-3 0  9990",
    "line2": "2 48984  87.9098 228.5299 0002153  98.2785 261.8591 13.16594128239740"
  },
  {
    "name": "ONEWEB-0267",
    "noradId": "48985",
    "line1": "1 48985U 21060U   26169.43271505 -.00000504  00000+0 -13527-2 0  9994",
    "line2": "2 48985  87.9097 228.5245 0002055  96.9352 263.2013 13.16597567239753"
  },
  {
    "name": "ONEWEB-0268",
    "noradId": "48986",
    "line1": "1 48986U 21060V   26169.40103209  .00000007  00000+0 -16237-4 0  9997",
    "line2": "2 48986  87.9101 228.5405 0002034  94.1108 266.0256 13.16596386240013"
  },
  {
    "name": "ONEWEB-0269",
    "noradId": "48987",
    "line1": "1 48987U 21060W   26169.61004112  .00000048  00000+0  92599-4 0  9993",
    "line2": "2 48987  87.9087 228.5013 0002162  92.6240 267.5138 13.16594214239813"
  },
  {
    "name": "ONEWEB-0270",
    "noradId": "48988",
    "line1": "1 48988U 21060X   26169.39946717  .00000110  00000+0  25373-3 0  9990",
    "line2": "2 48988  87.9102 228.5425 0001885 107.8740 252.2596 13.16595265239821"
  },
  {
    "name": "ONEWEB-0271",
    "noradId": "48989",
    "line1": "1 48989U 21060Y   26169.46279845  .00000121  00000+0  28347-3 0  9996",
    "line2": "2 48989  87.9098 228.5198 0001830 101.4745 258.6592 13.16594811239831"
  },
  {
    "name": "ONEWEB-0272",
    "noradId": "48990",
    "line1": "1 48990U 21060Z   26169.40895956 -.00000018  00000+0 -81258-4 0  9997",
    "line2": "2 48990  87.9097 228.5424 0001835  91.3447 268.7894 13.16592835239779"
  },
  {
    "name": "ONEWEB-0273",
    "noradId": "48991",
    "line1": "1 48991U 21060AA  26169.43113112  .00000020  00000+0  19456-4 0  9990",
    "line2": "2 48991  87.9098 228.5372 0001962 100.8464 259.2888 13.16594544239754"
  },
  {
    "name": "ONEWEB-0274",
    "noradId": "48992",
    "line1": "1 48992U 21060AB  26169.60845353  .00000084  00000+0  18531-3 0  9991",
    "line2": "2 48992  87.9089 228.5043 0001894  89.1624 270.9724 13.16593756239811"
  }
]