OBJECT_NAME,OBJECT_ID,EPOCH,MEAN_MOTION,ECCENTRICITY,INCLINATION,RA_OF_ASC_NODE,ARG_OF_PERICENTER,MEAN_ANOMALY,EPHEMERIS_TYPE,CLASSIFICATION_TYPE,NORAD_CAT_ID,ELEMENT_SET_NO,REV_AT_EPOCH,BSTAR,MEAN_MOTION_DOT,MEAN_MOTION_DDOT
ONEWEB-0236,2021-045AG,2026-06-18T13:04:37.104960,13.15548408,.00022042,87.9004,258.9362,102.4862,257.6515,0,U,48797,999,24443,.64067362E-3,.254E-5,0
ONEWEB-0248,2021-045AH,2026-06-18T11:33:20.208960,13.15548095,.00018298,87.9012,258.9321,114.8946,245.2375,0,U,48798,999,24458,.48508593E-3,.195E-5,0
ONEWEB-0225,2021-045AJ,2026-06-18T12:05:17.442240,13.15549242,.00015321,87.9007,258.9358,111.0443,249.0851,0,U,48799,999,24459,-.222589E-3,-.71E-6,0
ONEWEB-0215,2021-045AK,2026-06-18T11:21:55.145088,13.15547309,.00015343,87.9013,258.9243,118.2954,241.8331,0,U,48800,999,24446,.62874592E-3,.25E-5,0
ONEWEB-0216,2021-045AL,2026-06-18T11:35:37.815648,13.15549638,.00019794,87.9012,258.9372,98.2388,261.8966,0,U,48801,999,24447,.49963391E-3,.201E-5,0
ONEWEB-0239,2021-045AM,2026-06-18T11:42:28.172448,13.15549341,.00017324,87.9002,258.9426,125.0886,235.0407,0,U,48802,999,24451,.20763483E-4,.21E-6,0
ONEWEB-0249,2021-060A,2026-06-18T10:06:00.154368,13.16595700,.00020815,87.9096,228.5333,101.0103,259.1262,0,U,48967,999,23977,-.8234534E-5,.1E-6,0
ONEWEB-0250,2021-060B,2026-06-18T14:10:18.210720,13.25834044,.00028503,87.9096,226.2512,112.4966,247.6472,0,U,48968,999,24040,.7444894E-4,.46E-6,0
ONEWEB-0252,2021-060D,2026-06-18T14:29:20.519808,13.16593745,.00019047,87.9096,228.4889,92.9417,267.1932,0,U,48970,999,23984,.13309225E-3,.64E-6,0
ONEWEB-0253,2021-060E,2026-06-18T14:13:22.985760,13.16593511,.00020859,87.9096,228.4968,101.2543,258.8822,0,U,48971,999,23977,-.33344618E-4,0,0
ONEWEB-0254,2021-060F,2026-06-18T14:27:03.725280,13.16594594,.00019305,87.9097,228.4923,106.7425,253.3918,0,U,48972,999,23977,.80802762E-4,.44E-6,0
ONEWEB-0255,2021-060G,2026-06-18T09:53:28.347360,13.16594955,.00019381,87.9100,228.5368,101.8876,258.2472,0,U,48973,999,23982,.87484816E-4,.46E-6,0
ONEWEB-0256,2021-060H,2026-06-18T14:09:57.276000,13.16593883,.00020861,87.9090,228.5057,94.6789,265.4580,0,U,48974,999,23981,-.30575335E-3,-.104E-5,0
ONEWEB-0257,2021-060J,2026-06-18T09:28:23.163456,13.16595492,.00018941,87.9099,228.5314,98.0387,262.0959,0,U,48975,999,23974,.46935597E-3,.192E-5,0
ONEWEB-0258,2021-060K,2026-06-18T09:30:40.216320,13.16595362,.00020788,87.9099,228.5430,98.9506,261.1861,0,U,48976,999,23975,.44474172E-3,.183E-5,0
ONEWEB-0259,2021-060L,2026-06-18T09:21:33.209280,13.16595223,.00020603,87.9097,228.5435,102.9691,257.1670,0,U,48977,999,23978,.32787084E-3,.138E-5,0
ONEWEB-0260,2021-060M,2026-06-18T14:37:18.808608,13.16594288,.00019304,87.9091,228.5016,86.4108,273.7244,0,U,48978,999,23979,.19130285E-3,.86E-6,0
ONEWEB-0261,2021-060N,2026-06-18T10:15:06.119424,13.16593588,.00017578,87.9094,228.5378,100.3557,259.7772,0,U,48979,999,23982,-.48673774E-3,-.173E-5,0
ONEWEB-0262,2021-060P,2026-06-18T09:46:37.808256,13.16594784,.00021386,87.9100,228.5275,106.0764,254.0603,0,U,48980,999,23978,.21554253E-4,.21E-6,0
ONEWEB-0263,2021-060Q,2026-06-18T14:11:05.829216,13.16594567,.00017863,87.9096,228.5029,104.3564,255.7765,0,U,48981,999,23977,.91525567E-4,.48E-6,0
ONEWEB-0264,2021-060R,2026-06-18T09:36:22.358592,13.16595659,.00018412,87.9099,228.5438,94.8353,265.2988,0,U,48982,999,23975,.3258828E-4,.25E-6,0
ONEWEB-0266,2021-060T,2026-06-18T10:07:09.128352,13.16594128,.00021539,87.9098,228.5299,98.2785,261.8591,0,U,48984,999,23974,-.15997622E-3,-.48E-6,0
ONEWEB-0267,2021-060U,2026-06-18T10:23:06.580320,13.16597567,.00020551,87.9097,228.5245,96.9352,263.2013,0,U,48985,999,23975,-.13526812E-2,-.504E-5,0
ONEWEB-0268,2021-060V,2026-06-18T09:37:29.172576,13.16596386,.00020341,87.9101,228.5405,94.1108,266.0256,0,U,48986,999,24001,-.16237025E-4,.7E-7,0
ONEWEB-0269,2021-060W,2026-06-18T14:38:27.552768,13.16594214,.00021625,87.9087,228.5013,92.6240,267.5138,0,U,48987,999,23981,.92599107E-4,.48E-6,0
ONEWEB-0270,2021-060X,2026-06-18T09:35:13.963488,13.16595265,.00018858,87.9102,228.5425,107.8740,252.2596,0,U,48988,999,23982,.25373492E-3,.11E-5,0
ONEWEB-0271,2021-060Y,2026-06-18T11:06:25.786080,13.16594811,.00018309,87.9098,228.5198,101.4745,258.6592,0,U,48989,999,23983,.28347498E-3,.121E-5,0
ONEWEB-0272,2021-060Z,2026-06-18T09:48:54.105984,13.16592835,.00018356,87.9097,228.5424,91.3447,268.7894,0,U,48990,999,23977,-.81257619E-4,-.18E-6,0
ONEWEB-0273,2021-060AA,2026-06-18T10:20:49.728768,13.16594544,.0001962,87.9098,228.5372,100.8464,259.2888,0,U,48991,999,23975,.19456067E-4,.2E-6,0
ONEWEB-0274,2021-060AB,2026-06-18T14:36:10.384992,13.16593756,.00018945,87.9089,228.5043,89.1624,270.9724,0,U,48992,999,23981,.18531246E-3,.84E-6,0
